
# Worst residual: 11.21 km
# MJD 60352.000000 (2024 Feb 12  0:00)
TESS = 2018-038A = NORAD 43435
1 43435U 18038A   24043.49919926  .00000000  00000-0  00000-0 2 21829
2 43435 045.3004 068.3631 3779742 146.1598 346.5337 00.07042399    02

# Worst residual: 6.33 km
# MJD 60353.000000 (2024 Feb 13  0:00)
TESS = 2018-038A = NORAD 43435
1 43435U 18038A   24044.49919926  .00000000  00000-0  00000-0 2 21820
2 43435 045.3353 068.3207 3767871 146.1445 011.9373 00.07062173    04

# Worst residual: 2.60 km
# MJD 60354.000000 (2024 Feb 14  0:00)
TESS = 2018-038A = NORAD 43435
1 43435U 18038A   24045.49919926  .00000000  00000-0  00000-0 2 21821
2 43435 045.3573 068.3281 3762164 146.0732 037.4530 00.07073603    06

# Worst residual: 5.37 km
# MJD 60355.000000 (2024 Feb 15  0:00)
TESS = 2018-038A = NORAD 43435
1 43435U 18038A   24046.49919926  .00000000  00000-0  00000-0 2 21822
2 43435 045.3573 068.3258 3761797 145.9232 063.0676 00.07084828    01

# Worst residual: 9.77 km
# MJD 60356.000000 (2024 Feb 16  0:00)
TESS = 2018-038A = NORAD 43435
1 43435U 18038A   24047.49919926  .00000000  00000-0  00000-0 2 21823
2 43435 045.3549 068.2916 3768507 145.6507 088.8758 00.07104987    07

# Worst residual: 12.97 km
# MJD 60357.000000 (2024 Feb 17  0:00)
TESS = 2018-038A = NORAD 43435
1 43435U 18038A   24048.49919926  .00000000  00000-0  00000-0 2 21824
2 43435 045.3645 068.2328 3785318 145.3007 114.9051 00.07133333    06

# Worst residual: 15.02 km
# MJD 60358.000000 (2024 Feb 18  0:00)
TESS = 2018-038A = NORAD 43435
1 43435U 18038A   24049.49919926  .00000000  00000-0  00000-0 2 21825
2 43435 045.3906 068.1642 3811061 144.9589 141.1181 00.07165038    02

# Worst residual: 16.01 km
# MJD 60359.000000 (2024 Feb 19  0:00)
TESS = 2018-038A = NORAD 43435
1 43435U 18038A   24050.49919926  .00000000  00000-0  00000-0 2 21827
2 43435 045.4304 068.1012 3841399 144.6797 167.4680 00.07194893    07

# Worst residual: 15.86 km
# MJD 60360.000000 (2024 Feb 20  0:00)
TESS = 2018-038A = NORAD 43435
1 43435U 18038A   24051.49919926  .00000000  00000-0  00000-0 2 21828
2 43435 045.4743 068.0564 3870968 144.4694 193.9147 00.07218115    09

# Worst residual: 15.59 km
# MJD 60361.000000 (2024 Feb 21  0:00)
TESS = 2018-038A = NORAD 43435
1 43435U 18038A   24052.49919926  .00000000  00000-0  00000-0 2 21829
2 43435 045.5132 068.0324 3895500 144.2933 220.4343 00.07230665    07

# Worst residual: 14.36 km
# MJD 60362.000000 (2024 Feb 22  0:00)
TESS = 2018-038A = NORAD 43435
1 43435U 18038A   24053.49919926  .00000000  00000-0  00000-0 2 21820
2 43435 045.5307 068.0276 3912678 144.0943 246.9919 00.07229194    09

# Worst residual: 12.43 km
# MJD 60363.000000 (2024 Feb 23  0:00)
TESS = 2018-038A = NORAD 43435
1 43435U 18038A   24054.49919926  .00000000  00000-0  00000-0 2 21821
2 43435 045.5174 068.0248 3923543 143.8182 273.5453 00.07211524    02

# Worst residual: 11.13 km
# MJD 60364.000000 (2024 Feb 24  0:00)
TESS = 2018-038A = NORAD 43435
1 43435U 18038A   24055.49919926  .00000000  00000-0  00000-0 2 21822
2 43435 045.4720 067.9942 3932310 143.4526 300.0121 00.07177646    01

# Worst residual: 14.34 km
# MJD 60365.000000 (2024 Feb 25  0:00)
TESS = 2018-038A = NORAD 43435
1 43435U 18038A   24056.49919926  .00000000  00000-0  00000-0 2 21823
2 43435 045.4202 067.9009 3943957 143.1160 326.2206 00.07136588    04

# Worst residual: 13.05 km
# MJD 60366.000000 (2024 Feb 26  0:00)
TESS = 2018-038A = NORAD 43435
1 43435U 18038A   24057.49919926  .00000000  00000-0  00000-0 2 21824
2 43435 045.4237 067.7658 3948013 143.0379 351.9964 00.07122300    02

# Worst residual: 8.57 km
# MJD 60367.000000 (2024 Feb 27  0:00)
TESS = 2018-038A = NORAD 43435
1 43435U 18038A   24058.49919926  .00000000  00000-0  00000-0 2 21825
2 43435 045.4724 067.7217 3931195 143.0689 017.7119 00.07151505    09

# Worst residual: 6.44 km
# MJD 60368.000000 (2024 Feb 28  0:00)
TESS = 2018-038A = NORAD 43435
1 43435U 18038A   24059.49919926  .00000000  00000-0  00000-0 2 21826
2 43435 045.4705 067.7148 3922325 143.1800 043.4753 00.07157732    00

# Worst residual: 9.33 km
# MJD 60369.000000 (2024 Feb 29  0:00)
TESS = 2018-038A = NORAD 43435
1 43435U 18038A   24060.49919926  .00000000  00000-0  00000-0 2 21828
2 43435 045.4437 067.6342 3917342 143.4926 069.0384 00.07141831    09

# Worst residual: 10.44 km
# MJD 60370.000000 (2024 Mar  1  0:00)
TESS = 2018-038A = NORAD 43435
1 43435U 18038A   24061.49919926  .00000000  00000-0  00000-0 2 21829
2 43435 045.4397 067.4815 3909924 143.8698 094.4610 00.07122578    05

# Worst residual: 9.95 km
# MJD 60371.000000 (2024 Mar  2  0:00)
TESS = 2018-038A = NORAD 43435
1 43435U 18038A   24062.49919926  .00000000  00000-0  00000-0 2 21820
2 43435 045.4760 067.2984 3900309 144.2131 119.8339 00.07106430    08

# Worst residual: 8.76 km
# MJD 60372.000000 (2024 Mar  3  0:00)
TESS = 2018-038A = NORAD 43435
1 43435U 18038A   24063.49919926  .00000000  00000-0  00000-0 2 21821
2 43435 045.5470 067.1271 3889251 144.4770 145.2161 00.07093906    07

# Worst residual: 8.60 km
# MJD 60373.000000 (2024 Mar  4  0:00)
TESS = 2018-038A = NORAD 43435
1 43435U 18038A   24064.49919926  .00000000  00000-0  00000-0 2 21822
2 43435 045.6341 066.9969 3876850 144.6373 170.6462 00.07083427    01

# Worst residual: 7.95 km
# MJD 60374.000000 (2024 Mar  5  0:00)
TESS = 2018-038A = NORAD 43435
1 43435U 18038A   24065.49919926  .00000000  00000-0  00000-0 2 21823
2 43435 045.7136 066.9201 3863044 144.6766 196.1494 00.07072745    09

# Worst residual: 6.71 km
# MJD 60375.000000 (2024 Mar  6  0:00)
TESS = 2018-038A = NORAD 43435
1 43435U 18038A   24066.49919926  .00000000  00000-0  00000-0 2 21824
2 43435 045.7632 066.8912 3848297 144.5828 221.7385 00.07059459    00

# Worst residual: 7.70 km
# MJD 60376.000000 (2024 Mar  7  0:00)
TESS = 2018-038A = NORAD 43435
1 43435U 18038A   24067.49919926  .00000000  00000-0  00000-0 2 21825
2 43435 045.7695 066.8888 3834104 144.3537 247.4069 00.07041268    01

# Worst residual: 11.18 km
# MJD 60377.000000 (2024 Mar  8  0:00)
TESS = 2018-038A = NORAD 43435
1 43435U 18038A   24068.49919926  .00000000  00000-0  00000-0 2 21826
2 43435 045.7331 066.8820 3823151 144.0068 273.1160 00.07016364    07

# Worst residual: 13.30 km
# MJD 60378.000000 (2024 Mar  9  0:00)
TESS = 2018-038A = NORAD 43435
1 43435U 18038A   24069.49919926  .00000000  00000-0  00000-0 2 21827
2 43435 045.6728 066.8414 3818792 143.5953 298.7783 00.06984592    07

# Worst residual: 13.72 km
# MJD 60379.000000 (2024 Mar 10  0:00)
TESS = 2018-038A = NORAD 43435
1 43435U 18038A   24070.49919926  .00000000  00000-0  00000-0 2 21829
2 43435 045.6233 066.7561 3822663 143.2279 324.2492 00.06950801    08

# Worst residual: 12.45 km
# MJD 60380.000000 (2024 Mar 11  0:00)
TESS = 2018-038A = NORAD 43435
1 43435U 18038A   24071.49919926  .00000000  00000-0  00000-0 2 21820
2 43435 045.6219 066.6552 3827936 143.0419 349.4031 00.06931322    08

# Worst residual: 10.07 km
# MJD 60381.000000 (2024 Mar 12  0:00)
TESS = 2018-038A = NORAD 43435
1 43435U 18038A   24072.49919926  .00000000  00000-0  00000-0 2 21821
2 43435 045.6679 066.6076 3820616 142.9511 014.4333 00.06943695    08

# Worst residual: 6.63 km
# MJD 60382.000000 (2024 Mar 13  0:00)
TESS = 2018-038A = NORAD 43435
1 43435U 18038A   24073.49919926  .00000000  00000-0  00000-0 2 21822
2 43435 045.7067 066.6245 3810161 142.7674 039.6387 00.06966654    08

# Worst residual: 3.22 km
# MJD 60383.000000 (2024 Mar 14  0:00)
TESS = 2018-038A = NORAD 43435
1 43435U 18038A   24074.49919926  .00000000  00000-0  00000-0 2 21823
2 43435 045.7158 066.6410 3806186 142.5728 064.9491 00.06983251    02

# Worst residual: 5.72 km
# MJD 60384.000000 (2024 Mar 15  0:00)
TESS = 2018-038A = NORAD 43435
1 43435U 18038A   24075.49919926  .00000000  00000-0  00000-0 2 21824
2 43435 045.7139 066.6138 3809359 142.3950 090.3125 00.06997158    06

# Worst residual: 9.02 km
# MJD 60385.000000 (2024 Mar 16  0:00)
TESS = 2018-038A = NORAD 43435
1 43435U 18038A   24076.49919926  .00000000  00000-0  00000-0 2 21825
2 43435 045.7247 066.5374 3820595 142.2386 115.7244 00.07012710    01

# Worst residual: 11.13 km
# MJD 60386.000000 (2024 Mar 17  0:00)
TESS = 2018-038A = NORAD 43435
1 43435U 18038A   24077.49919926  .00000000  00000-0  00000-0 2 21826
2 43435 045.7634 066.4255 3840377 142.1229 141.1820 00.07031711    08

# Worst residual: 12.52 km
# MJD 60387.000000 (2024 Mar 18  0:00)
TESS = 2018-038A = NORAD 43435
1 43435U 18038A   24078.49919926  .00000000  00000-0  00000-0 2 21827
2 43435 045.8347 066.3022 3867336 142.0707 166.6822 00.07053936    02

# Worst residual: 13.26 km
# MJD 60388.000000 (2024 Mar 19  0:00)
TESS = 2018-038A = NORAD 43435
1 43435U 18038A   24079.49919926  .00000000  00000-0  00000-0 2 21828
2 43435 045.9331 066.1922 3898699 142.0928 192.2276 00.07077985    02

# Worst residual: 13.48 km
# MJD 60389.000000 (2024 Mar 20  0:00)
TESS = 2018-038A = NORAD 43435
1 43435U 18038A   24080.49919926  .00000000  00000-0  00000-0 2 21820
2 43435 046.0446 066.1147 3930885 142.1804 217.8284 00.07101580    00

# Worst residual: 13.23 km
# MJD 60390.000000 (2024 Mar 21  0:00)
TESS = 2018-038A = NORAD 43435
1 43435U 18038A   24081.49919926  .00000000  00000-0  00000-0 2 21821
2 43435 046.1500 066.0790 3960277 142.3040 243.5007 00.07121594    03

# Worst residual: 11.92 km
# MJD 60391.000000 (2024 Mar 22  0:00)
TESS = 2018-038A = NORAD 43435
1 43435U 18038A   24082.49919926  .00000000  00000-0  00000-0 2 21822
2 43435 046.2289 066.0804 3984157 142.4163 269.2576 00.07134076    09

# Worst residual: 11.02 km
# MJD 60392.000000 (2024 Mar 23  0:00)
TESS = 2018-038A = NORAD 43435
1 43435U 18038A   24083.49919926  .00000000  00000-0  00000-0 2 21823
2 43435 046.2639 066.0954 4002124 142.4486 295.1138 00.07132934    01

# Worst residual: 8.48 km
# MJD 60393.000000 (2024 Mar 24  0:00)
TESS = 2018-038A = NORAD 43435
1 43435U 18038A   24084.49919926  .00000000  00000-0  00000-0 2 21824
2 43435 046.2570 066.0832 4017782 142.3637 321.0142 00.07112661    02
